BEIDOU-2 IGSO-1 (C06)   
1 36828U 10036A   24265.55247330 -.00000123  00000+0  00000+0 0  9990
2 36828  54.2549 168.6973 0041043 204.6345 292.1584  1.00254068 51850
BEIDOU-2 G4 (C04)       
1 37210U 10057A   24267.84464826 -.00000123  00000+0  00000+0 0  9994
2 37210   2.0808  69.7098 0007935 163.2802 234.3766  1.00271218 50961
BEIDOU-2 IGSO-2 (C07)   
1 37256U 10068A   24267.75221631 -.00000182  00000+0  00000+0 0  9996
2 37256  48.6986 279.6129 0040411 217.3669 244.9380  1.00271344 50463
BEIDOU-2 IGSO-3 (C08)   
1 37384U 11013A   24267.33298622 -.00000179  00000+0  00000+0 0  9993
2 37384  61.5046  46.1664 0032243 174.9322   8.9532  1.00283832 49320
BEIDOU-2 IGSO-4 (C09)   
1 37763U 11038A   24259.70686448 -.00000094  00000+0  00000+0 0  9996
2 37763  54.5620 171.3831 0129048 229.2096 303.3869  1.00288593 48233
BEIDOU-2 IGSO-5 (C10)   
1 37948U 11073A   24267.00778487 -.00000144  00000+0  00000+0 0  9993
2 37948  48.8340 279.3156 0103120 221.5991 320.4351  1.00270618 46798
BEIDOU-2 G5 (C05)       
1 38091U 12008A   24267.89605663  .00000045  00000+0  00000+0 0  9993
2 38091   2.0004  70.5094 0007019 221.6209  92.4329  1.00269514 46033
BEIDOU-2 M3 (C11)       
1 38250U 12018A   24267.19549535 -.00000087  00000+0  00000+0 0  9996
2 38250  56.2687 326.0787 0024602 261.8334  97.9478  1.86233465 84170
BEIDOU-2 M4 (C12)       
1 38251U 12018B   24263.90376931 -.00000070  00000+0  00000+0 0  9992
2 38251  56.1769 325.4532 0015369 261.5607  98.3350  1.86231811 84113
BEIDOU-2 M6 (C14)       
1 38775U 12050B   24267.37198074 -.00000007  00000+0  00000+0 0  9994
2 38775  55.9938  83.8824 0010896 348.9348  11.0761  1.86231061 81549
BEIDOU-2 G6 (C02)       
1 38953U 12059A   24267.91854885 -.00000188  00000+0  00000+0 0  9990
2 38953   2.8081  79.6897 0006213 306.0563  32.2178  1.00270328 43575
BEIDOU-3S IGSO-1S (C31) 
1 40549U 15019A   24264.57410293 -.00000171  00000+0  00000+0 0  9995
2 40549  50.3939 303.0621 0036754 197.5051 162.4153  1.00284029 34703
BEIDOU-3S M2S (C58)     
1 40748U 15037A   24267.32525667 -.00000084  00000+0  00000+0 0  9997
2 40748  55.4036 323.6975 0012604 249.6442 110.2799  1.86229073 62350
BEIDOU-3S M1S (C57)     
1 40749U 15037B   24267.06101439 -.00000084  00000+0  00000+0 0  9996
2 40749  55.4065 323.6930 0003141 315.3993  44.6354  1.86227507 62359
BEIDOU-3S IGSO-2S (C56) 
1 40938U 15053A   24267.47410347 -.00000116  00000+0  00000+0 0  9996
2 40938  50.2077 266.2516 0053247 189.8706 173.3645  1.00283843 33021
BEIDOU-2 IGSO-6 (C13)   
1 41434U 16021A   24267.74348601 -.00000148  00000+0  00000+0 0  9992
2 41434  59.3319  44.3600 0052948 221.9542  97.9747  1.00294848 31146
BEIDOU-2 G7 (C03)       
1 41586U 16037A   24267.90630852 -.00000366  00000+0  00000+0 0  9999
2 41586   1.6136  65.9996 0006652 353.1563  20.9211  1.00272012   563
BEIDOU-3 M1 (C19)       
1 43001U 17069A   24267.13790235 -.00000007  00000+0  00000+0 0  9998
2 43001  56.1438  83.9987 0007181 308.9649  51.0061  1.86231280 46832
BEIDOU-3 M2 (C20)       
1 43002U 17069B   24267.07537903 -.00000007  00000+0  00000+0 0  9993
2 43002  56.1428  84.0376 0005729 345.2659  14.7525  1.86230874 46825
BEIDOU-3 M7 (C27)       
1 43107U 18003A   24267.36055692 -.00000086  00000+0  00000+0 0  9997
2 43107  54.8619 324.2441 0002619  86.2476 273.8411  1.86232418 45584
BEIDOU-3 M8 (C28)       
1 43108U 18003B   24267.30181186 -.00000086  00000+0  00000+0 0  9990
2 43108  54.8550 324.2312 0004815 252.8889 107.1173  1.86230835 45591
BEIDOU-3 M4 (C22)       
1 43207U 18018A   24267.20601164 -.00000007  00000+0  00000+0 0  9991
2 43207  56.1027  84.0823 0005076  29.7426 330.3214  1.86231200 44975
BEIDOU-3 M3 (C21)       
1 43208U 18018B   24267.27264571 -.00000006  00000+0  00000+0 0  9995
2 43208  56.1022  84.0844 0005221 329.8302  30.1749  1.86231184 44972
BEIDOU-3 M9 (C29)       
1 43245U 18029A   24266.41911947 -.00000080  00000+0  00000+0 0  9991
2 43245  54.7424 321.9744 0002115 235.7769 124.2639  1.86232493 44119
BEIDOU-3 M10 (C30)      
1 43246U 18029B   24266.88559160 -.00000081  00000+0  00000+0 0  9999
2 43246  54.7399 321.9864 0002666 349.0937  10.9604  1.86232864 44105
BEIDOU-2 IGSO-7 (C16)   
1 43539U 18057A   24266.50877700 -.00000140  00000+0  00000+0 0  9993
2 43539  55.1480 168.5420 0078364 233.4363 255.9833  1.00282078 22790
BEIDOU-3 M5 (C23)       
1 43581U 18062A   24267.10998656  .00000013  00000+0  00000+0 0  9995
2 43581  54.1234 203.8008 0004192 293.1258  66.8233  1.86228601 41860
BEIDOU-3 M6 (C24)       
1 43582U 18062B   24266.43838626  .00000020  00000+0  00000+0 0  9999
2 43582  54.1232 203.8131 0005487  14.2789 345.7289  1.86229644 41852
BEIDOU-3 M12 (C26)      
1 43602U 18067A   24266.37151640  .00000020  00000+0  00000+0 0  9994
2 43602  54.2141 202.5060 0007676  24.4123 335.6180  1.86227606 41336
BEIDOU-3 M11 (C25)      
1 43603U 18067B   24267.04179733  .00000013  00000+0  00000+0 0  9995
2 43603  54.2112 202.4480 0004486  12.8831 347.1235  1.86227016 41371
BEIDOU-3 M13 (C32)      
1 43622U 18072A   24267.54060014 -.00000006  00000+0  00000+0 0  9991
2 43622  56.0741  83.6000 0003943 307.2857  52.7129  1.86231292 40891
BEIDOU-3 M14 (C33)      
1 43623U 18072B   24267.40605828 -.00000006  00000+0  00000+0 0  9995
2 43623  56.0759  83.5978 0002836   6.7381 353.3002  1.86231331 40880
BEIDOU-3 M16 (C35)      
1 43647U 18078A   24267.56823804 -.00000082  00000+0  00000+0 0  9994
2 43647  54.6384 322.0255 0005832  12.1201 347.9526  1.86232158 40398
BEIDOU-3 M15 (C34)      
1 43648U 18078B   24267.16041389 -.00000082  00000+0  00000+0 0  9991
2 43648  54.6345 322.0422 0002476  15.9230 344.1440  1.86232202 40402
BEIDOU-3 G1 (C59)       
1 43683U 18085A   24267.89146685 -.00000291  00000+0  00000+0 0  9995
2 43683   2.4307 105.9495 0002228  36.6575 321.5758  1.00270026 21722
BEIDOU-3 M17 (C36)      
1 43706U 18093A   24267.31199474  .00000011  00000+0  00000+0 0  9990
2 43706  54.2063 203.7396 0009084 288.4998  71.3950  1.86228249 39774
BEIDOU-3 M18 (C37)      
1 43707U 18093B   24267.17653795  .00000012  00000+0  00000+0 0  9997
2 43707  54.2072 203.7359 0007646 317.9360  41.9988  1.86229798 39760
BEIDOU-3 IGSO-1 (C38)   
1 44204U 19023A   24267.08979934 -.00000215  00000+0  00000+0 0  9996
2 44204  57.7920  44.2015 0024121 205.8638 264.2456  1.00271741   871
BEIDOU-2 G8 (C01)       
1 44231U 19027A   24267.62701292 -.00000261  00000+0  00000+0 0  9991
2 44231   1.7172  74.3973 0003965 182.8512 115.8326  1.00266442 19749
BEIDOU-3 IGSO-2 (C39)   
1 44337U 19035A   24267.62180010 -.00000151  00000+0  00000+0 0  9994
2 44337  55.1817 164.4074 0034755 202.6566 338.6319  1.00266445 19334
BEIDOU-3 M24 (C46)      
1 44542U 19061A   24267.24634151  .00000012  00000+0  00000+0 0  9994
2 44542  54.4339 204.0477 0008486 354.9175   5.0669  1.86229280 34026
BEIDOU-3 M23 (C45)      
1 44543U 19061B   24267.72441078  .00000005  00000+0  00000+0 0  9994
2 44543  54.4325 204.0002 0005577 341.2068 251.8580  1.86229475 34034
BEIDOU-3 IGSO-3 (C40)   
1 44709U 19073A   24266.46191750 -.00000170  00000+0  00000+0 0  9994
2 44709  55.8857 287.6943 0041269 190.9485 168.9962  1.00272911 18093
BEIDOU-3 M22 (C44)      
1 44793U 19078A   24267.09146416 -.00000082  00000+0  00000+0 0  9993
2 44793  54.4864 321.9622 0004506  18.3584 341.7171  1.86232110 32877
BEIDOU-3 M21 (C43)      
1 44794U 19078B   24267.22101018 -.00000082  00000+0  00000+0 0  9998
2 44794  54.4599 321.9316 0002552   2.9993 357.0612  1.86232562 32887
BEIDOU-3 M19 (C41)      
1 44864U 19090A   24267.48821374 -.00000006  00000+0  00000+0 0  9998
2 44864  56.0091  83.7669 0015295 281.0629  90.5491  1.86231536 32477
BEIDOU-3 M20 (C42)      
1 44865U 19090B   24267.60772549 -.00000006  00000+0  00000+0 0  9992
2 44865  56.0104  83.7963 0012906 296.5269 244.9163  1.86231484 32458
BEIDOU-3 G2 (C60)       
1 45344U 20017A   24267.91854885 -.00000154  00000+0  00000+0 0  9998
2 45344   2.4460  33.1462 0003680 187.8225 192.9882  1.00272304 16934
BEIDOU-3 G3 (C61)       
1 45807U 20040A   24267.90630852 -.00000366  00000+0  00000+0 0  9998
2 45807   0.9609  52.1067 0002356 327.8238  60.0267  1.00266916 15749
BEIDOU-3 G4             
1 56564U 23066A   24267.87410308 -.00000126  00000+0  00000+0 0  9993
2 56564   1.8815 288.5313 0005761 237.7925 311.4680  1.00270098  5066
BEIDOU-3 M25            
1 58654U 23207A   24267.84081635 -.00000007  00000+0  00000+0 0  9994
2 58654  55.1931  83.7030 0000312 189.4377 170.5969  1.86232168  5087
BEIDOU-3 M26            
1 58655U 23207B   24267.63998029 -.00000008  00000+0  00000+0 0  9997
2 58655  55.1950  83.6954 0001760 216.5572 143.4658  1.86231639  5064
